STARLINK-2720_new
1 18653C 21044R   21326.18158976 -.00000431  00000-0 -28857-4 0  3264
2 18653  53.0546 322.9171 0001709  51.6379 358.5134 15.06389011    18
STARLINK-2720_old
1 28653C 21044R   21325.13141373 -.00011045  00000-0 -73987-3 0  3256
2 28653  53.0549 327.6315 0001735  53.0836  58.7498 15.06416727    13
